{"type": "FeatureCollection", "features": [ {"type": "Feature", "properties": {"norad_id": 66605, "name": "STARLINK-36052", "group": "last-30-days", "lat": 26.97166079612969, "lon": -99.62154752634589, "alt_km": 439.69633872230406, "timestamp": "2025-12-26T09:30:52.340017+00:00", "meta": {"OBJECT_NAME": "STARLINK-36052", "OBJECT_ID": "2025-270T", "EPOCH": "2025-12-25T17:21:34.257024", "MEAN_MOTION": 15.40746331, "ECCENTRICITY": 4.705e-05, "INCLINATION": 42.9964, "RA_OF_ASC_NODE": 117.3649, "ARG_OF_PERICENTER": 297.8013, "MEAN_ANOMALY": 62.2795, "EPHEMERIS_TYPE": 0, "CLASSIFICATION_TYPE": "U", "NORAD_CAT_ID": 66605, "ELEMENT_SET_NO": 999, "REV_AT_EPOCH": 635, "BSTAR": 0.0013972926, "MEAN_MOTION_DOT": 0.00058604, "MEAN_MOTION_DDOT": 0}, "tle": {"line1": "1 66605U 25270T   25359.72331316  .00058604  00000+0  13973-2 0  9996", "line2": "2 66605  42.9964 117.3649 0000470 297.8013  62.2795 15.40746331  6350"}}, "geometry": {"type": "Point", "coordinates": [-99.62154752634589, 26.97166079612969]}}, {"type": "Feature", "properties": {"norad_id": 66606, "name": "STARLINK-36063", "group": "last-30-days", "lat": -28.9015325533309, "lon": -30.39709374135962, "alt_km": 446.0757655125335, "timestamp": "2025-12-26T09:30:52.340032+00:00", "meta": {"OBJECT_NAME": "STARLINK-36063", "OBJECT_ID": "2025-270U", "EPOCH": "2025-12-26T00:00:02.000160", "MEAN_MOTION": 15.40690142, "ECCENTRICITY": 0.0001561, "INCLINATION": 43.0003, "RA_OF_ASC_NODE": 115.5581, "ARG_OF_PERICENTER": 275.4953, "MEAN_ANOMALY": 268.2775, "EPHEMERIS_TYPE": 0, "CLASSIFICATION_TYPE": "U", "NORAD_CAT_ID": 66606, "ELEMENT_SET_NO": 999, "REV_AT_EPOCH": 604, "BSTAR": -9.7091e-05, "MEAN_MOTION_DOT": -4.356e-05, "MEAN_MOTION_DDOT": 0}, "tle": {"line1": "1 66606U 25270U   25360.00002315 -.00004356  00000+0 -97091-4 0  9996", "line2": "2 66606  43.0003 115.5581 0001561 275.4953 268.2775 15.40690142  6049"}}, "geometry": {"type": "Point", "coordinates": [-30.39709374135962, -28.9015325533309]}}, {"type": "Feature", "properties": {"norad_id": 66607, "name": "STARLINK-35993", "group": "last-30-days", "lat": 19.43096832645753, "lon": -88.79081447043869, "alt_km": 440.86446610065104, "timestamp": "2025-12-26T09:30:52.340042+00:00", "meta": {"OBJECT_NAME": "STARLINK-35993", "OBJECT_ID": "2025-270V", "EPOCH": "2025-12-25T17:18:19.288512", "MEAN_MOTION": 15.40741183, "ECCENTRICITY": 0.00016255, "INCLINATION": 43.0008, "RA_OF_ASC_NODE": 117.3464, "ARG_OF_PERICENTER": 249.0774, "MEAN_ANOMALY": 110.9909, "EPHEMERIS_TYPE": 0, "CLASSIFICATION_TYPE": "U", "NORAD_CAT_ID": 66607, "ELEMENT_SET_NO": 999, "REV_AT_EPOCH": 625, "BSTAR": 0.001395574, "MEAN_MOTION_DOT": 0.00058522, "MEAN_MOTION_DDOT": 0}, "tle": {"line1": "1 66607U 25270V   25359.72105658  .00058522  00000+0  13956-2 0  9996", "line2": "2 66607  43.0008 117.3464 0001625 249.0774 110.9909 15.40741183  6251"}}, "geometry": {"type": "Point", "coordinates": [-88.79081447043869, 19.43096832645753]}}, {"type": "Feature", "properties": {"norad_id": 66608, "name": "STARLINK-36036", "group": "last-30-days", "lat": -35.132861610137226, "lon": -17.721315551121926, "alt_km": 446.259399790566, "timestamp": "2025-12-26T09:30:52.340053+00:00", "meta": {"OBJECT_NAME": "STARLINK-36036", "OBJECT_ID": "2025-270W", "EPOCH": "2025-12-26T00:00:02.000160", "MEAN_MOTION": 15.40691202, "ECCENTRICITY": 0.0001551, "INCLINATION": 43.0003, "RA_OF_ASC_NODE": 115.5277, "ARG_OF_PERICENTER": 272.8529, "MEAN_ANOMALY": 283.3616, "EPHEMERIS_TYPE": 0, "CLASSIFICATION_TYPE": "U", "NORAD_CAT_ID": 66608, "ELEMENT_SET_NO": 999, "REV_AT_EPOCH": 604, "BSTAR": -0.00015885, "MEAN_MOTION_DOT": -6.931e-05, "MEAN_MOTION_DDOT": 0}, "tle": {"line1": "1 66608U 25270W   25360.00002315 -.00006931  00000+0 -15885-3 0  9999", "line2": "2 66608  43.0003 115.5277 0001551 272.8529 283.3616 15.40691202  6042"}}, "geometry": {"type": "Point", "coordinates": [-17.721315551121926, -35.132861610137226]}}, {"type": "Feature", "properties": {"norad_id": 66609, "name": "STARLINK-36034", "group": "last-30-days", "lat": -42.515579767659105, "lon": 12.879779682144662, "alt_km": 446.3699528831876, "timestamp": "2025-12-26T09:30:52.340064+00:00", "meta": {"OBJECT_NAME": "STARLINK-36034", "OBJECT_ID": "2025-270X", "EPOCH": "2025-12-26T00:00:02.000160", "MEAN_MOTION": 15.4069776, "ECCENTRICITY": 0.0001565, "INCLINATION": 43.0001, "RA_OF_ASC_NODE": 115.4677, "ARG_OF_PERICENTER": 269.7362, "MEAN_ANOMALY": 311.3446, "EPHEMERIS_TYPE": 0, "CLASSIFICATION_TYPE": "U", "NORAD_CAT_ID": 66609, "ELEMENT_SET_NO": 999, "REV_AT_EPOCH": 612, "BSTAR": -0.00017145, "MEAN_MOTION_DOT": -7.458e-05, "MEAN_MOTION_DDOT": 0}, "tle": {"line1": "1 66609U 25270X   25360.00002315 -.00007458  00000+0 -17145-3 0  9996", "line2": "2 66609  43.0001 115.4677 0001565 269.7362 311.3446 15.40697760  6126"}}, "geometry": {"type": "Point", "coordinates": [12.879779682144662, -42.515579767659105]}}, {"type": "Feature", "properties": {"norad_id": 66610, "name": "STARLINK-35680", "group": "last-30-days", "lat": 3.1308492447564067, "lon": -69.97123031970366, "alt_km": 443.5900411633211, "timestamp": "2025-12-26T09:30:52.340074+00:00", "meta": {"OBJECT_NAME": "STARLINK-35680", "OBJECT_ID": "2025-270Y", "EPOCH": "2025-12-26T00:00:02.000160", "MEAN_MOTION": 15.40693056, "ECCENTRICITY": 0.0001683, "INCLINATION": 43.0004, "RA_OF_ASC_NODE": 115.6787, "ARG_OF_PERICENTER": 271.0241, "MEAN_ANOMALY": 222.9844, "EPHEMERIS_TYPE": 0, "CLASSIFICATION_TYPE": "U", "NORAD_CAT_ID": 66610, "ELEMENT_SET_NO": 999, "REV_AT_EPOCH": 604, "BSTAR": -5.523e-05, "MEAN_MOTION_DOT": -2.609e-05, "MEAN_MOTION_DDOT": 0}, "tle": {"line1": "1 66610U 25270Y   25360.00002315 -.00002609  00000+0 -55230-4 0  9999", "line2": "2 66610  43.0004 115.6787 0001683 271.0241 222.9844 15.40693056  6042"}}, "geometry": {"type": "Point", "coordinates": [-69.97123031970366, 3.1308492447564067]}}, {"type": "Feature", "properties": {"norad_id": 66611, "name": "STARLINK-35583", "group": "last-30-days", "lat": -13.853426394961136, "lon": -51.3239423734051, "alt_km": 445.30235724820614, "timestamp": "2025-12-26T09:30:52.340084+00:00", "meta": {"OBJECT_NAME": "STARLINK-35583", "OBJECT_ID": "2025-270Z", "EPOCH": "2025-12-25T17:05:26.222784", "MEAN_MOTION": 15.40757863, "ECCENTRICITY": 6.595e-05, "INCLINATION": 43.0004, "RA_OF_ASC_NODE": 117.2753, "ARG_OF_PERICENTER": 326.6033, "MEAN_ANOMALY": 33.4782, "EPHEMERIS_TYPE": 0, "CLASSIFICATION_TYPE": "U", "NORAD_CAT_ID": 66611, "ELEMENT_SET_NO": 999, "REV_AT_EPOCH": 646, "BSTAR": 0.001409315, "MEAN_MOTION_DOT": 0.00059138, "MEAN_MOTION_DDOT": 0}, "tle": {"line1": "1 66611U 25270Z   25359.71210906  .00059138  00000+0  14093-2 0  9990", "line2": "2 66611  43.0004 117.2753 0000659 326.6033  33.4782 15.40757863  6461"}}, "geometry": {"type": "Point", "coordinates": [-51.3239423734051, -13.853426394961136]}}, {"type": "Feature", "properties": {"norad_id": 66612, "name": "STARLINK-36039", "group": "last-30-days", "lat": -30.591464751239382, "lon": 74.55675472409051, "alt_km": 445.7679307136714, "timestamp": "2025-12-26T09:30:52.340094+00:00", "meta": {"OBJECT_NAME": "STARLINK-36039", "OBJECT_ID": "2025-270AA", "EPOCH": "2025-12-25T01:03:04.009824", "MEAN_MOTION": 15.40706418, "ECCENTRICITY": 0.00011468, "INCLINATION": 42.9994, "RA_OF_ASC_NODE": 121.733, "ARG_OF_PERICENTER": 270.7369, "MEAN_ANOMALY": 89.3356, "EPHEMERIS_TYPE": 0, "CLASSIFICATION_TYPE": "U", "NORAD_CAT_ID": 66612, "ELEMENT_SET_NO": 999, "REV_AT_EPOCH": 624, "BSTAR": 0.0010340794, "MEAN_MOTION_DOT": 0.00043146, "MEAN_MOTION_DDOT": 0}, "tle": {"line1": "1 66612U 25270AA  25359.04379641  .00043146  00000+0  10341-2 0  9993", "line2": "2 66612  42.9994 121.7330 0001146 270.7369  89.3356 15.40706418  6245"}}, "geometry": {"type": "Point", "coordinates": [74.55675472409051, -30.591464751239382]}}, {"type": "Feature", "properties": {"norad_id": 66613, "name": "STARLINK-36037", "group": "last-30-days", "lat": -15.696418521413333, "lon": 96.32184616528741, "alt_km": 444.9830176548112, "timestamp": "2025-12-26T09:30:52.340104+00:00", "meta": {"OBJECT_NAME": "STARLINK-36037", "OBJECT_ID": "2025-270AB", "EPOCH": "2025-12-25T08:43:22.456704", "MEAN_MOTION": 15.40747703, "ECCENTRICITY": 3.47e-05, "INCLINATION": 42.9973, "RA_OF_ASC_NODE": 119.8307, "ARG_OF_PERICENTER": 326.0918, "MEAN_ANOMALY": 33.9916, "EPHEMERIS_TYPE": 0, "CLASSIFICATION_TYPE": "U", "NORAD_CAT_ID": 66613, "ELEMENT_SET_NO": 999, "REV_AT_EPOCH": 629, "BSTAR": 0.00097518, "MEAN_MOTION_DOT": 0.00040714, "MEAN_MOTION_DDOT": 0}, "tle": {"line1": "1 66613U 25270AB  25359.36345436  .00040714  00000+0  97518-3 0  9994", "line2": "2 66613  42.9973 119.8307 0000347 326.0918  33.9916 15.40747703  6296"}}, "geometry": {"type": "Point", "coordinates": [96.32184616528741, -15.696418521413333]}}, {"type": "Feature", "properties": {"norad_id": 66614, "name": "STARLINK-36040", "group": "last-30-days", "lat": 42.96232786545267, "lon": -158.1797220350099, "alt_km": 437.3689980274439, "timestamp": "2025-12-26T09:30:52.340119+00:00", "meta": {"OBJECT_NAME": "STARLINK-36040", "OBJECT_ID": "2025-270AC", "EPOCH": "2025-12-25T08:14:20.544576", "MEAN_MOTION": 15.40744083, "ECCENTRICITY": 0.0001175, "INCLINATION": 42.9964, "RA_OF_ASC_NODE": 119.6723, "ARG_OF_PERICENTER": 302.2675, "MEAN_ANOMALY": 57.8067, "EPHEMERIS_TYPE": 0, "CLASSIFICATION_TYPE": "U", "NORAD_CAT_ID": 66614, "ELEMENT_SET_NO": 999, "REV_AT_EPOCH": 613, "BSTAR": 0.0012628, "MEAN_MOTION_DOT": 0.00052891, "MEAN_MOTION_DDOT": 0}, "tle": {"line1": "1 66614U 25270AC  25359.34329334  .00052891  00000+0  12628-2 0  9999", "line2": "2 66614  42.9964 119.6723 0001175 302.2675  57.8067 15.40744083  6136"}}, "geometry": {"type": "Point", "coordinates": [-158.1797220350099, 42.96232786545267]}}]}